pname,pid,formatted_address,longitude,latitude,lnglat
天安门广场,100101B2094654D36EA0FA4198,北京市东城区天安门广场,116.397726,39.903767,"116.397726,39.903767"
颐和园,100101B2094654D26FA1F5499D,北京市海淀区颐和园,116.272876,39.992430,"116.272876,39.992430"
北京八达岭长城,100101B2094757D56FA3F5439A,北京市延庆区八达岭长城,116.016802,40.356188,"116.016802,40.356188"
故宫博物院,100101B2094654D66CA4FB4098,北京市东城区故宫博物院,116.397026,39.918058,"116.397026,39.918058"
朝阳公园,100101B2094654D16DA1FA449A,北京市朝阳区朝阳公园,116.482534,39.944304,"116.482534,39.944304"
奥林匹克公园中心区,100101B2094654D065A1F9499D,北京市朝阳区奥林匹克公园中心区,116.396533,39.998719,"116.396533,39.998719"
欢乐谷,100101B2094654D368A5F8439A,北京市朝阳区欢乐谷,116.500599,39.865009,"116.500599,39.865009"
蓝色港湾,100101B2094654D16FA3FF489C,北京市朝阳区蓝色港湾,116.475116,39.949468,"116.475116,39.949468"
北海公园,100101B2094654D269A6FE4898,北京市西城区北海公园,116.388767,39.928265,"116.388767,39.928265"
香山公园,100101B2094654D26CA2FA4498,北京市海淀区香山公园,116.189141,39.990246,"116.189141,39.990246"
北京动物园,100101B2094654D26EA3F54393,北京市西城区北京动物园,116.339892,39.941344,"116.339892,39.941344"
国家大剧院,100101B2094654D36EA0FA4093,北京市西城区国家大剧院,116.389669,39.906245,"116.389669,39.906245"
中国国家博物馆,100101B2094654D36EAAFA439A,北京市东城区中国国家博物馆,116.401388,39.905417,"116.401388,39.905417"
国家图书馆,100101B2094654D06AA7F8469F,北京市西城区国家图书馆,116.384739,39.923779,"116.384739,39.923779"
景山公园,100101B2094654D269A5F9489D,北京市西城区景山公园,116.396776,39.925847,"116.396776,39.925847"
798艺术中心,100101B2094654D069ABFD469D,北京市朝阳区798艺术区,116.494606,39.985056,"116.494606,39.985056"
中华民族园,100101B2094757D068AAF84499,北京市朝阳区中华民族园,116.390853,39.985205,"116.390853,39.985205"
王府半岛酒店,100101B2094757D06FA2FC409A,北京市东城区王府半岛酒店,116.415977,39.914918,"116.415977,39.914918"
后海夜色,100101B2094757D464A2FB499F,北京市西城区后海,116.393097,39.938880,"116.393097,39.938880"
地坛公园,100101B2094654D168A0F4439B,北京市东城区地坛公园,116.414867,39.953679,"116.414867,39.953679"
三里屯酒吧街,100101B2094757D06EAAF4489F,北京市朝阳区酒吧街,116.455660,39.934683,"116.455660,39.934683"
后海,100101B2094757DB6FABFE469A,北京市西城区后海,116.393097,39.938880,"116.393097,39.938880"
雍和宫,100101B2094654D66EA3FE4399,北京市东城区雍和宫,116.417795,39.945371,"116.417795,39.945371"
mix club酒吧,100101B2094654D168A0FE499F,not found,not found,not found,not found
元大都城垣遗址公园,100101B2094757D56EA4FC4598,北京市朝阳区垣遗址公园,116.429719,39.976807,"116.429719,39.976807"
胡大饭馆NO.5,100101B2094757D06FA2FA419D,北京市东城区胡大饭馆,116.420595,39.940804,"116.420595,39.940804"
KTV,100101B2094654D264A5FB4899,北京市昌平区ktv,116.321043,40.076051,"116.321043,40.076051"
温莎KTV量贩(花园店),100101B2094654D16CA3FC4599,北京市海淀区温莎ktv,116.309056,39.935524,"116.309056,39.935524"
北京植物园,100101B2094654D26CA2FA469E,北京市海淀区北京植物园,116.209714,40.001403,"116.209714,40.001403"
恭王府,100101B2094757D06EAAFD489E,北京市西城区恭王府,116.386310,39.937209,"116.386310,39.937209"
陶然亭公园,100101B2094654D36EA4FF409D,北京市西城区陶然亭公园,116.381973,39.874476,"116.381973,39.874476"
十渡,100101B2094654D364A4F84293,北京市房山区十渡,115.594619,39.646447,"115.594619,39.646447"
耀莱成龙国际影城,100101B2094757D06EAAFB429D,北京市西城区耀莱成龙国际影城,116.325341,39.877083,"116.325341,39.877083"
富力万丽酒店宴会厅,100101B2094654D06BA5FE479D,北京市朝阳区富力万丽酒店宴会厅,116.460701,39.897524,"116.460701,39.897524"
保利剧院,100101B2094654D268A4FE4499,北京市昌平区保利剧院,116.233984,40.223509,"116.233984,40.223509"
潭柘寺,100101B2094654D26BA1F5499F,北京市门头沟区潭柘寺,116.029617,39.906022,"116.029617,39.906022"
居庸关长城水门,100101B2094654D66DA7F54499,北京市昌平区居庸关,116.076850,40.285821,"116.076850,40.285821"
月坛公园,100101B2094757D06FAAFE499D,北京市西城区月坛公园,116.352234,39.916422,"116.352234,39.916422"
北京新云南皇冠假日酒店,100101B2094654D069A6F5479C,北京市朝阳区新云南皇冠假日酒店,116.439072,39.922091,"116.439072,39.922091"
北京国贸大酒店,100101B2094757D06FA3F44493,北京市朝阳区国贸大酒店,116.458436,39.912658,"116.458436,39.912658"
龙潭公园,100101B2094654D36EA0F44298,北京市东城区龙潭公园,116.440655,39.878694,"116.440655,39.878694"
北京金隅喜来登酒店,100101B2094757D06FA4F54393,北京市东城区喜来登酒店,116.408744,39.967282,"116.408744,39.967282"
上庄小海鲜,100101B2094757D065A7FE4093,北京市海淀区小海鲜,116.215587,40.095521,"116.215587,40.095521"
北京北辰五洲皇冠国际酒店,100101B2094654D06EA5FE4792,北京市朝阳区五洲皇冠国际酒店,116.404821,39.989814,"116.404821,39.989814"
金融街威斯汀大酒店(The Westin Beijing Financial Street),100101B2094757D06FA7F84398,北京市西城区威斯汀大酒店,116.359293,39.917543,"116.359293,39.917543"
中山公园,100101B2094654D36EA7F9489E,北京市东城区中山公园,116.394549,39.910365,"116.394549,39.910365"
中国国际展览中心,100101B2094654D06AA2F5459F,北京市朝阳区中国国际展览中心,116.445595,39.962319,"116.445595,39.962319"
JW万豪酒店大堂吧(建国路店),100101B2094654D36FA7FA489A,北京市朝阳区jw万豪酒店大堂吧,116.481375,39.910456,"116.481375,39.910456"
九华山庄,100101B2094654D16CABF8439E,北京市昌平区九华山庄,116.417720,40.182215,"116.417720,40.182215"
顺景温泉酒店,100101B2094654D66CA5FD409D,北京市朝阳区顺景温泉酒店,116.461958,39.974083,"116.461958,39.974083"
金鼎轩地坛店,100101B2094654D268A3FF409B,北京市东城区金鼎轩,116.409900,39.967163,"116.409900,39.967163"
北京柏悦酒店,100101B2094654D16CA3F9469E,北京市朝阳区北京柏悦酒店,116.459167,39.907566,"116.459167,39.907566"
拿铁酒吧,100101B2094757D06EAAFE4992,北京市朝阳区拿铁酒吧,116.445970,39.932370,"116.445970,39.932370"
北京香格里拉饭店,100101B2094654D168ABF4419C,北京市海淀区香格里拉饭店,116.308065,39.944343,"116.308065,39.944343"
外婆家(北京王府井店),100101B2094757D06FA1F94799,北京市东城区北京王府井店,116.409432,39.913931,"116.409432,39.913931"
雁栖湖,100101B2094654D365A2F44292,北京市怀柔区雁栖湖,116.683445,40.402314,"116.683445,40.402314"
音乐之声KTV,100101B2094757D06EAAFC4993,北京市朝阳区音乐之声ktv,116.443054,39.918268,"116.443054,39.918268"
北京万达国际电影城,100101B2094654D068ABFB419B,北京市朝阳区万达国际影城,116.470631,39.909270,"116.470631,39.909270"
北京千禧大酒店,100101B209465DD26FA7FE4893,北京市朝阳区千禧大酒店,116.459251,39.917118,"116.459251,39.917118"
北京展览馆,100101B2094654D26DA1F5499E,北京市西城区北京展览馆,116.344081,39.940512,"116.344081,39.940512"
故宫御花园,100101B2094757D06FA1FD469B,北京市东城区御花园,116.396820,39.921459,"116.396820,39.921459"
江湖,100101B2094757D06FA1FA429B,北京市东城区江湖,116.407857,39.935819,"116.407857,39.935819"
温莎KTV量贩(国贸店),100101B2094750D169AAF8489E,北京市海淀区温莎ktv,116.309056,39.935524,"116.309056,39.935524"
北京丽思卡尔顿酒店,100101B2094654D16CA2FA4298,北京市朝阳区丽思卡尔顿酒店,116.480770,39.910523,"116.480770,39.910523"
北京全聚德王府井店,100101B2094654D169A1FF4098,北京市东城区全聚德王府井店,116.411981,39.912043,"116.411981,39.912043"
莲花池公园,100101B2094654D264A7FE439E,北京市丰台区莲花池公园,116.314960,39.892173,"116.314960,39.892173"
前门全聚德起源店,100101B2094654D06BAAF8489A,北京市丰台区全聚德,116.380221,39.843853,"116.380221,39.843853"
什刹海风景区,100101B2094757D06FA4F8449D,北京市西城区什刹海风景区,116.389587,39.934428,"116.389587,39.934428"
老伍酒吧,100101B2094757D06FA4F84199,not found,not found,not found,not found
首都博物馆,100101B2094654D264ABFF439E,北京市西城区首都博物馆,116.342120,39.906481,"116.342120,39.906481"
金库KTV,100101B2094654D265A1FD4499,北京市西城区金库ktv,116.375253,39.911437,"116.375253,39.911437"
前门大栅栏,100101B209475CD26BABFD419E,北京市西城区大栅栏,116.395787,39.895467,"116.395787,39.895467"
中国大饭店,100101B2094654D36FA2FA409D,北京市朝阳区中国大饭店,116.459309,39.909826,"116.459309,39.909826"
北京拉斐特城堡酒店,100101B2094654D06FAAF5489D,北京市昌平区拉斐特城堡酒店,116.449189,40.132033,"116.449189,40.132033"
同一首歌KTV(西直门店),100101B2094654D069A6FC439A,北京市朝阳区同一首歌ktv,116.492618,39.915158,"116.492618,39.915158"
丽晶酒店,100101B2094654D068A3FC4298,北京市东城区丽晶酒店,116.418613,39.916280,"116.418613,39.916280"
慕田峪长城,100101B2094654D06EA5FB429F,北京市怀柔区慕田峪长城,116.564036,40.430860,"116.564036,40.430860"
长安街,100101B2094757D06EAAF5439E,北京市密云区长安街,116.844414,40.374346,"116.844414,40.374346"
北京王府井励骏酒店,100101B2094654D16EA5F9489D,北京市东城区励骏酒店,116.419114,39.915030,"116.419114,39.915030"
中国美术馆,100101B2094654D268ABF5489F,北京市东城区中国美术馆,116.409046,39.925039,"116.409046,39.925039"
北京国际饭店(星光汇旋转餐厅),100101B2094654D065A6FE429F,北京市东城区旋转餐厅,116.427879,39.909777,"116.427879,39.909777"
古北水镇,100101B209475CD465ABF9489E,北京市密云区古北水镇,117.276270,40.653689,"117.276270,40.653689"
UME华星影城华星店,100101B2094654D068A2F94798,北京市海淀区ume华星影城,116.326086,39.967807,"116.326086,39.967807"
希尔顿酒店随园宴会厅,100101B2094654D06AA5F9479C,北京市东城区希尔顿酒店,116.413159,39.914405,"116.413159,39.914405"
北京万达文华酒店,100101B2094654D06AA2FD489C,北京市,116.407526,39.904030,"116.407526,39.904030"
京仪大酒店|和园中餐厅(大钟寺店),100101B2094757D068ABFF4799,北京市海淀区京仪大酒店,116.337441,39.972227,"116.337441,39.972227"
伊贝莎主题时尚KTV,100101B2094757D16DA1FD4599,not found,not found,not found,not found
