pname,pid,formatted_address,longitude,latitude,lnglat
黄鹤楼,100101B2094655D464A3FF439C,湖北省武汉市江汉区黄鹤楼,114.267135,30.588888,"114.267135,30.588888"
武汉欢乐谷,100101B2094750D16AA1FD429C,湖北省武汉市洪山区武汉欢乐谷,114.395108,30.592663,"114.395108,30.592663"
武汉长江大桥,100101B2094655D56CA2FF489C,湖北省武汉市武昌区武汉长江大桥,114.288626,30.549505,"114.288626,30.549505"
汤逊湖,100101B2094757D16CA3F9489E,湖北省武汉市洪山区汤逊湖,114.402032,30.458283,"114.402032,30.458283"
昙华林,100101B2094750D565A5F8469E,湖北省武汉市武昌区昙华林,114.309186,30.551847,"114.309186,30.551847"
湖北省博物馆,100101B2094757D06FA3F4439A,湖北省武汉市武昌区湖北省博物馆,114.365493,30.561423,"114.365493,30.561423"
珞珈山,100101B2094757D069A7FE449F,湖北省武汉市武昌区珞珈山,114.360437,30.533255,"114.360437,30.533255"
武汉万达影院菱角湖店,100101B2094655D56EAAFE479D,湖北省武汉市江汉区菱角湖店,114.266127,30.608671,"114.266127,30.608671"
归元寺,100101B2094655D464A2F4479A,湖北省武汉市汉阳区归元寺,114.260818,30.544754,"114.260818,30.544754"
武汉富力威斯汀酒店,100101B2094757DB6DA5FF4393,湖北省武汉市武昌区威斯汀酒店,114.308234,30.564753,"114.308234,30.564753"
武汉极地海洋世界,100101B2094757D565A7F54298,湖北省武汉市东西湖区极地海洋世界,114.277853,30.664527,"114.277853,30.664527"
水果湖,100101B2094655D56EA6FE459B,湖北省武汉市武昌区水果湖,114.347039,30.543481,"114.347039,30.543481"
武汉万达影城,100101B2094655D56EA2FF489C,湖北省武汉市汉阳区万达影城,114.267286,30.549275,"114.267286,30.549275"
武汉大学图书馆文理馆(总馆),100101B2094757D06FA3F4469E,湖北省武汉市武昌区武汉大学图书馆,114.362712,30.535956,"114.362712,30.535956"
星巴克咖啡(光谷店),100101B2094655D56CA2FC419B,湖北省武汉市洪山区星巴克咖啡,114.410546,30.491304,"114.410546,30.491304"
海底捞火锅凯德广场店,100101B2094752D364A2F4489D,湖北省武汉市硚口区凯德广场店,114.266112,30.568888,"114.266112,30.568888"
香格里拉酒店(武汉店),100101B2094655D56DA5F9409F,湖北省武汉市江岸区香格里拉酒店,114.283047,30.602507,"114.283047,30.602507"
湖北经济学院图书馆,100101B2094757D068AAF9469E,湖北省武汉市江夏区湖北经济学院图书馆,114.435810,30.418323,"114.435810,30.418323"
中山公园,100101B2094655D465ABF5479B,湖北省武汉市江汉区中山公园,114.271702,30.581485,"114.271702,30.581485"
辛亥革命武昌起义纪念馆,100101B2094757D06FAAFA499E,湖北省武汉市武昌区辛亥革命武昌起义纪念馆,114.306470,30.542240,"114.306470,30.542240"
吉庆街美食一条街,100101B2094757D464A3FE4293,湖北省武汉市江岸区吉庆街,114.289147,30.583561,"114.289147,30.583561"
中影天河国际影城,100101B2094655D56EA2FF489A,湖北省武汉市洪山区中影天河国际影城,114.402940,30.505461,"114.402940,30.505461"
巴厘龙虾,100101B2094655D46FAAFB4692,湖北省武汉市蔡甸区巴厘龙虾,114.031028,30.575283,"114.031028,30.575283"
中国科学院武汉植物园,100101B2094757D068A6FD4498,湖北省武汉市洪山区中国科学院武汉植物园,114.422101,30.542741,"114.422101,30.542741"
翠华餐厅武汉旗舰店,100101B2094757DA6FA1FA419A,湖北省武汉市武昌区武汉旗舰店,114.343778,30.549351,"114.343778,30.549351"
VOX LIVEHOUSE 酒吧,100101B2094655D465A5F8439E,湖北省武汉市洪山区voxlivehouse,114.399824,30.511488,"114.399824,30.511488"
巨幕影城(武汉光谷广场资本大厦店),100101B2094752D06CA0F4409A,湖北省武汉市洪山区巨幕影城,114.400771,30.504671,"114.400771,30.504671"
东湖听涛风景区,100101B2094757D069A3FA489D,湖北省武汉市武昌区听涛风景区,114.375303,30.559702,"114.375303,30.559702"
华中师范大学图书馆总馆(新馆),100101B2094757D068AAF5459C,湖北省武汉市洪山区华中师范大学图书馆,114.360648,30.519775,"114.360648,30.519775"
金逸国际电影城,100101B2094655D46FABFD429F,湖北省武汉市武昌区金逸国际电影城,114.319790,30.574760,"114.319790,30.574760"
武汉纺织大学阳光校区图书馆,100101B2094757D16BA4F9429C,湖北省武汉市江夏区武汉纺织大学阳光校区图书馆,114.338605,30.377519,"114.338605,30.377519"
武汉万达瑞华酒店,100101B209475DD669ABF9419D,湖北省武汉市武昌区万达瑞华酒店,114.347295,30.552314,"114.347295,30.552314"
虎泉夜市,100101B2094655D46BAAF94593,湖北省武汉市洪山区虎泉夜市,114.368083,30.514127,"114.368083,30.514127"
常青公园,100101B2094757D069A7FE449C,湖北省武汉市江汉区常青公园,114.238380,30.619728,"114.238380,30.619728"
中南民族大学南书院,100101B2094757D06FA7FA419D,湖北省武汉市洪山区南书院,114.392271,30.486448,"114.392271,30.486448"
星巴克咖啡销品茂店,100101B2094655D56EA0FE479A,湖北省武汉市武昌区销品茂店,114.341495,30.587323,"114.341495,30.587323"
稻香,100101B2094750DB6CA0F54599,not found,not found,not found,not found
武汉万达影城春树里店,100101B2094655D56EAAFE489B,湖北省武汉市武昌区春树里店,114.360691,30.574754,"114.360691,30.574754"
亢龙太子花园酒店金融店,100101B2094757D06FA5FA4999,湖北省武汉市江汉区亢龙太子花园酒店,114.272500,30.597307,"114.272500,30.597307"
武汉新世界酒店,100101B2094655D56DA7FF489C,湖北省武汉市硚口区新世界酒店,114.265752,30.579186,"114.265752,30.579186"
四海一家武汉点,100101B2094757D16FA4F54998,湖北省武汉市江岸区四海一家,114.294001,30.590394,"114.294001,30.590394"
muse,100101B2094757D06BA0FA4792,not found,not found,not found,not found
星巴克咖啡,100101B2094655D464A4FA429D,湖北省武汉市武昌区星巴克咖啡,114.330306,30.540830,"114.330306,30.540830"
武汉华美达光谷大酒店(光谷店),100101B2094655D465A3FD409C,湖北省武汉市洪山区华美达光谷大酒店,114.397056,30.506247,"114.397056,30.506247"
古德寺,100101B2094757D069A3F84298,湖北省武汉市江岸区古德寺,114.307585,30.618594,"114.307585,30.618594"
万达影城汉商店,100101B2094655D56EAAFE489A,湖北省武汉市汉阳区万达影城,114.267286,30.549275,"114.267286,30.549275"
解放公园,100101B2094757D068A3F9459D,湖北省武汉市江岸区解放公园,114.297925,30.608481,"114.297925,30.608481"
武汉剧院,100101B2094757D069A2F4499F,湖北省武汉市江岸区武汉剧院,114.287947,30.587488,"114.287947,30.587488"
華誼兄弟武汉影院,100101B2094757DA69A7FE409E,not found,not found,not found,not found
万达国际影城经开店,100101B2094757D16DABF94599,湖北省武汉市江岸区万达国际影城,114.294650,30.591250,"114.294650,30.591250"
金马门国际美食百汇,100101B2094655D56EA0FE4299,湖北省武汉市江汉区美食百汇,114.290972,30.578444,"114.290972,30.578444"
华中科技大学中心校区图书馆,100101B2094757D068ABF84293,湖北省武汉市洪山区华中科技大学,114.409978,30.509334,"114.409978,30.509334"
武汉江城明珠豪生大酒店,100101B2094757D068A4F9469C,湖北省武汉市江岸区江城明珠豪生大酒店,114.304148,30.590739,"114.304148,30.590739"
靓靓蒸虾玲珑店,100101B2094757D069A4FD4198,湖北省武汉市江汉区靓靓蒸虾玲珑店,114.268984,30.592650,"114.268984,30.592650"
湖北美术馆,100101B2094757D06FABF4459C,湖北省武汉市武昌区湖北美术馆,114.365526,30.563991,"114.365526,30.563991"
中南财经政法大学图书馆,100101B2094655D56DA0FF419D,湖北省武汉市洪山区中南财经政法大学图书馆,114.384807,30.473755,"114.384807,30.473755"
武汉光谷金盾大酒店,100101B2094757D06AA2FA4499,湖北省武汉市洪山区光谷金盾大酒店,114.388373,30.513301,"114.388373,30.513301"
武汉光明万丽酒店,100101B2094655D465ABFC479B,湖北省武汉市武昌区光明万丽酒店,114.356290,30.579424,"114.356290,30.579424"
妖后酒吧,100101B2094655D464A4FD429D,湖北省武汉市洪山区妖后酒吧,114.353935,30.528824,"114.353935,30.528824"
COSTACOFFEE(奥特莱斯店),100101B2094750D769A4FC4192,not found,not found,not found,not found
DreamCity City昙华林主题奶茶铺 Dream,100101B2094757D46DA1F44198,湖北省武汉市武昌区昙华林,114.309186,30.551847,"114.309186,30.551847"
光谷广场大转盘,100101B2094757D069A2FC4292,湖北省武汉市洪山区光谷广场,114.398107,30.507560,"114.398107,30.507560"
武汉市图书馆,100101B2094757D06FA7FE4298,湖北省武汉市江汉区武汉市图书馆,114.281834,30.603052,"114.281834,30.603052"
Helens西餐吧(东湖店),100101B2094750D769A4FE4493,湖北省武汉市汉阳区helens西餐吧,114.264649,30.550720,"114.264649,30.550720"
洪山天河国际影城,100101B2094757D06FA0FD489F,湖北省武汉市洪山区天河国际影城,114.263556,30.433464,"114.263556,30.433464"
东湖磨山梅园,100101B2094757D069A5FD409D,湖北省武汉市洪山区梅园,114.514071,30.522505,"114.514071,30.522505"
米乐星(汉口店),100101B2094757D06FABFB4799,湖北省武汉市江汉区米乐星,114.268138,30.585014,"114.268138,30.585014"
三五醇酒店,100101B2094757D164A2FD4499,湖北省武汉市江汉区三五醇酒店,114.270709,30.600088,"114.270709,30.600088"
ZOO coffee(1911大武汉店),100101B2094753D265ABFF4798,湖北省武汉市江汉区大武汉,114.262665,30.614421,"114.262665,30.614421"
江汉环球电影城,100101B2094757D068A0FC489A,湖北省武汉市武昌区环球电影城,114.299929,30.547438,"114.299929,30.547438"
湖北剧院,100101B2094655D464A3FF459F,湖北省武汉市武昌区湖北剧院,114.304534,30.541083,"114.304534,30.541083"
武汉金逸国际影城王家湾店,100101B2094655D56EAAFE479F,湖北省武汉市汉阳区王家湾店,114.205950,30.559239,"114.205950,30.559239"
武汉锦江国际大酒店,100101B2094655D465ABFC4793,湖北省武汉市江汉区锦江国际大酒店,114.270569,30.596512,"114.270569,30.596512"
武汉碧桂园凤凰酒店,100101B2094757D064A1FF4898,湖北省武汉市汉南区凤凰酒店,114.090177,30.351721,"114.090177,30.351721"
武汉香格里拉大饭店(高雄路),100101B2094655D56CA1FB469B,湖北省武汉市江岸区香格里拉大饭店,114.283135,30.602623,"114.283135,30.602623"
星巴克(菱角湖万达广场),100101B2094757D06FA7FA4893,湖北省武汉市蔡甸区星巴克,114.172934,30.506463,"114.172934,30.506463"
中央大街·生活摩尔城,100101B2094757D66DA6FB409E,湖北省武汉市江夏区中央大街,114.329578,30.354245,"114.329578,30.354245"
肯德基(武汉站店),100101B2094757D068A1FA4993,湖北省武汉市洪山区武汉站店,114.424944,30.607314,"114.424944,30.607314"
武汉探路者国际青年旅舍(探路者店),100101B2094757D46DA6F8419C,湖北省武汉市江汉区探路者国际青年旅舍,114.293328,30.579187,"114.293328,30.579187"
湖北银兴乐天影城（西园旗舰店）,100101B2094757D069A7F8499F,湖北省武汉市江汉区银兴乐天影城,114.268877,30.585925,"114.268877,30.585925"
蔡林记热干面馆(户部巷店),100101B2094757D068A7FC439F,湖北省武汉市武昌区蔡林记热干面馆,114.308629,30.548372,"114.308629,30.548372"
武汉丹枫白露酒店,100101B2094757DB6DA5FF459C,湖北省武汉市江岸区丹枫白露酒店,114.302074,30.598674,"114.302074,30.598674"
武汉横店影视电影城,100101B2094757D06FA0FD429D,湖北省武汉市黄陂区横店,114.294838,30.799511,"114.294838,30.799511"
金钱豹国际美食百汇会所武汉店,100101B2094757D06BA1FB499F,not found,not found,not found,not found
新江汉大学图书馆,100101B2094757D06AA3FF4099,湖北省武汉市蔡甸区江汉大学图书馆,114.158983,30.514182,"114.158983,30.514182"
星巴克 Starbucks(花园道店),100101B2094757D06FA1FF419D,湖北省武汉市硚口区星巴克,114.193627,30.597787,"114.193627,30.597787"
Helens西餐吧(光谷店),100101B2094750D769A4FE479B,湖北省武汉市洪山区helens西餐吧,114.392852,30.497926,"114.392852,30.497926"
长江,100101B2094757D06AA2FE4492,湖北省武汉市洪山区长江,114.407610,30.482470,"114.407610,30.482470"
老五烧烤光谷店,100101B2094757D068A7FF4492,湖北省武汉市硚口区老五烧烤,114.193227,30.598715,"114.193227,30.598715"
颐和·尚景,100101B2094757D06AA5FA4798,湖北省武汉市洪山区颐和尚景,114.439870,30.500494,"114.439870,30.500494"
